NORAD_CAT_ID,OBJECT_NAME,OBJECT_TYPE,EPOCH,MEAN_MOTION,ECCENTRICITY,INCLINATION,RA_OF_ASC_NODE,ARG_OF_PERICENTER,MEAN_ANOMALY,BSTAR,MEAN_MOTION_DOT,MEAN_MOTION_DDOT,TLE_LINE0,TLE_LINE1,TLE_LINE2,SEMIMAJOR_AXIS,PERIOD,APOGEE,PERIGEE,DECAYED
49137.0,STARLINK-3055,PAYLOAD,2022-09-07 10:12:48,14.98327323,0.0002497,69.9995,259.9329,256.4987,103.5894,5.8109e-05,6e-06,0.0,0 STARLINK-3055,1 49137U 21082H   22250.42555850  .00000600  00000-0  58109-4 0  9995,2 49137  69.9995 259.9329 0002497 256.4987 103.5894 14.98327323 54859,6950.201,96.107,573.802,570.331,0.0
49137.0,STARLINK-3055,PAYLOAD,2022-09-08 08:38:41,14.98328158,0.0002904,69.9987,257.577,252.6661,107.418,-3.6146e-05,-5.24e-06,0.0,0 STARLINK-3055,1 49137U 21082H   22251.36020030 -.00000524  00000-0 -36146-4 0  9990,2 49137  69.9987 257.5770 0002904 252.6661 107.4180 14.98328158 54997,6950.199000000001,96.107,574.082,570.045,0.0
49137.0,STARLINK-3055,PAYLOAD,2022-09-08 10:14:49,14.98328926,0.0003012,69.9988,257.4087,256.4256,103.6568,-2.1609e-05,-3.51e-06,0.0,0 STARLINK-3055,1 49137U 21082H   22251.42695992 -.00000351  00000-0 -21609-4 0  9998,2 49137  69.9988 257.4087 0003012 256.4256 103.6568 14.98328926 55005,6950.196,96.107,574.155,569.9680000000002,0.0
49137.0,STARLINK-3055,PAYLOAD,2022-09-09 10:16:50,14.98315692,0.0002652,69.9993,254.8839,251.8992,108.1878,0.00027658,3.207e-05,0.0,0 STARLINK-3055,1 49137U 21082H   22252.42836568  .00003207  00000-0  27658-3 0  9995,2 49137  69.9993 254.8839 0002652 251.8992 108.1878 14.98315692 55158,6950.236999999999,96.108,573.945,570.259,0.0
49137.0,STARLINK-3055,PAYLOAD,2022-09-10 03:54:19,14.98325947,0.0002586,69.9989,253.0321,253.2188,106.8688,0.00016252,1.846e-05,0.0,0 STARLINK-3055,1 49137U 21082H   22253.16272333  .00001846  00000-0  16252-3 0  9996,2 49137  69.9989 253.0321 0002586 253.2188 106.8688 14.98325947 55269,6950.205,96.107,573.868,570.273,0.0
49137.0,STARLINK-3055,PAYLOAD,2022-09-10 10:18:51,14.98341826,0.0002733,69.9989,252.3589,259.3587,100.7265,-0.00014029,-1.767e-05,0.0,0 STARLINK-3055,1 49137U 21082H   22253.42975791 -.00001767  00000-0 -14029-3 0  9997,2 49137  69.9989 252.3589 0002733 259.3587 100.7265 14.98341826 55304,6950.156,96.106,573.9209999999998,570.122,0.0
49137.0,STARLINK-3055,PAYLOAD,2022-09-11 03:56:19,14.98373673,0.0003126999999999,69.9988,250.5075,259.3973,100.6834,-0.00068237,-8.235e-05,0.0,0 STARLINK-3055,1 49137U 21082H   22254.16411068 -.00008235  00000-0 -68237-3 0  9998,2 49137  69.9988 250.5075 0003127 259.3973 100.6834 14.98373673 55418,6950.058000000001,96.104,574.096,569.75,0.0
49137.0,STARLINK-3055,PAYLOAD,2022-09-11 10:20:52,14.98334032,0.0002893,69.9988,249.8341,258.7114,101.372,0.00017877,2.041e-05,0.0,0 STARLINK-3055,1 49137U 21082H   22254.43116028  .00002041  00000-0  17877-3 0  9997,2 49137  69.9988 249.8341 0002893 258.7114 101.3720 14.98334032 55456,6950.18,96.107,574.056,570.035,0.0
49137.0,STARLINK-3055,PAYLOAD,2022-09-11 11:57:00,14.98335243,0.0002911,69.9996,249.6657,259.284,100.7991,0.00019126,2.19e-05,0.0,0 STARLINK-3055,1 49137U 21082H   22254.49792023  .00002190  00000-0  19126-3 0  9992,2 49137  69.9996 249.6657 0002911 259.2840 100.7991 14.98335243 55465,6950.177,96.107,574.065,570.018,0.0
49137.0,STARLINK-3055,PAYLOAD,2022-09-12 08:46:44,14.98342108,0.0002908999999999,69.9998,247.4774,259.0382,101.0449,0.00023823,2.752e-05,0.0,0 STARLINK-3055,1 49137U 21082H   22255.36579411  .00002752  00000-0  23823-3 0  9996,2 49137  69.9998 247.4774 0002909 259.0382 101.0449 14.98342108 55593,6950.155,96.106,574.0419999999998,569.999,0.0
49137.0,STARLINK-3055,PAYLOAD,2022-09-12 11:59:00,14.98343792,0.0002908999999999,69.9998,247.1408,259.0256,101.0576,0.00026052,3.018e-05,0.0,0 STARLINK-3055,1 49137U 21082H   22255.49931272  .00003018  00000-0  26052-3 0  9990,2 49137  69.9998 247.1408 0002909 259.0256 101.0576 14.98343792 55618,6950.15,96.106,574.0369999999998,569.993,0.0
49137.0,STARLINK-3055,PAYLOAD,2022-09-13 05:36:29,14.98333729,0.0002877,70.0,245.2905,259.4058,100.6777,-1.1118e-05,-2.26e-06,0.0,0 STARLINK-3055,1 49137U 21082H   22256.23367306 -.00000226  00000-0 -11118-4 0  9992,2 49137  70.0000 245.2905 0002877 259.4058 100.6777 14.98333729 55723,6950.181,96.107,574.0459999999998,570.047,0.0
49137.0,STARLINK-3055,PAYLOAD,2022-09-13 08:48:45,14.98330969,0.0002924,69.9989,244.9528,258.9728,101.1102,2.5028e-05,2.06e-06,0.0,0 STARLINK-3055,1 49137U 21082H   22256.36719677  .00000206  00000-0  25028-4 0  9999,2 49137  69.9989 244.9528 0002924 258.9728 101.1102 14.98330969 55747,6950.19,96.107,574.087,570.023,0.0
49137.0,STARLINK-3055,PAYLOAD,2022-09-13 16:49:26,14.98317176,0.0002725,69.9991,244.1111,266.4488,93.6359,0.00034928,4.076e-05,0.0,0 STARLINK-3055,1 49137U 21082H   22256.70100156  .00004076  00000-0  34928-3 0  9990,2 49137  69.9991 244.1111 0002725 266.4488  93.6359 14.98317176 55795,6950.233,96.108,573.991,570.2040000000002,0.0
49137.0,STARLINK-3055,PAYLOAD,2022-09-14 04:02:22,14.98335942,0.0002856999999999,69.9992,242.933,256.5341,103.5499,1.5419e-05,9.1e-07,0.0,0 STARLINK-3055,1 49137U 21082H   22257.16831105  .00000091  00000-0  15419-4 0  9994,2 49137  69.9992 242.9330 0002857 256.5341 103.5499 14.98335942 55864,6950.175,96.107,574.025,570.054,0.0
49137.0,STARLINK-3055,PAYLOAD,2022-09-14 12:03:02,14.98336777,0.0002865,69.999,242.0911,258.5536,101.5301,3.8443e-05,3.66e-06,0.0,0 STARLINK-3055,1 49137U 21082H   22257.50210864  .00000366  00000-0  38443-4 0  9992,2 49137  69.9990 242.0911 0002865 258.5536 101.5301 14.98336777 55918,6950.172,96.107,574.028,570.0459999999998,0.0
49137.0,STARLINK-3055,PAYLOAD,2022-09-15 04:04:22,14.98335551,0.0002947,69.9989,240.4078,258.9306,101.1522,0.00017214,1.962e-05,0.0,0 STARLINK-3055,1 49137U 21082H   22258.16970362  .00001962  00000-0  17214-3 0  9996,2 49137  69.9989 240.4078 0002947 258.9306 101.1522 14.98335551 56014,6950.176,96.107,574.089,569.993,0.0
49137.0,STARLINK-3055,PAYLOAD,2022-09-15 08:52:47,14.98328098,0.000287,69.9984,239.9009,263.0519,97.0313,8.7578e-05,9.52e-06,0.0,0 STARLINK-3055,1 49137U 21082H   22258.36999065  .00000952  00000-0  87578-4 0  9998,2 49137  69.9984 239.9009 0002870 263.0519  97.0313 14.98328098 56046,6950.199000000001,96.107,574.058,570.069,0.0
49137.0,STARLINK-3055,PAYLOAD,2022-09-15 23:17:59,14.98327557,0.0002806,69.999,238.388,256.0342,104.0505,2.1304e-05,1.61e-06,0.0,0 STARLINK-3055,1 49137U 21082H   22258.97083291  .00000161  00000-0  21304-4 0  9997,2 49137  69.9990 238.3880 0002806 256.0342 104.0505 14.98327557 56139,6950.2,96.107,574.016,570.115,0.0
49137.0,STARLINK-3055,PAYLOAD,2022-09-16 12:07:04,14.98329504,0.0002951,69.999,237.0413,258.9085,101.1742,2.3876e-05,1.92e-06,0.0,0 STARLINK-3055,1 49137U 21082H   22259.50491325  .00000192  00000-0  23876-4 0  9998,2 49137  69.9990 237.0413 0002951 258.9085 101.1742 14.98329504 56217,6950.194,96.107,574.11,570.008,0.0
49137.0,STARLINK-3055,PAYLOAD,2022-09-16 15:19:20,14.98330547,0.0002988,69.9991,236.7046,252.9655,107.1177,1.1748e-05,4.7e-07,0.0,0 STARLINK-3055,1 49137U 21082H   22259.63843258  .00000047  00000-0  11748-4 0  9992,2 49137  69.9991 236.7046 0002988 252.9655 107.1177 14.98330547 56232,6950.191,96.107,574.133,569.979,0.0
49137.0,STARLINK-3055,PAYLOAD,2022-09-17 02:32:16,14.98336,0.0002991,69.999,235.5263,259.8095,100.2726,1.2475e-05,5.6e-07,0.0,0 STARLINK-3055,1 49137U 21082H   22260.10574927  .00000056  00000-0  12475-4 0  9998,2 49137  69.9990 235.5263 0002991 259.8095 100.2726 14.98336000 56309,6950.174,96.107,574.118,569.961,0.0
49137.0,STARLINK-3055,PAYLOAD,2022-09-17 08:56:48,14.98339913,0.0002939,69.9991,234.853,259.9611,100.1216,-2.6406e-05,-4.08e-06,0.0,0 STARLINK-3055,1 49137U 21082H   22260.37278674 -.00000408  00000-0 -26406-4 0  9999,2 49137  69.9991 234.8530 0002939 259.9611 100.1216 14.98339913 56349,6950.1619999999975,96.106,574.07,569.985,0.0
49137.0,STARLINK-3055,PAYLOAD,2022-09-18 04:10:25,14.98336873,0.0002972,69.9993,232.8332,259.0506,101.0318,0.00020316,2.332e-05,0.0,0 STARLINK-3055,1 49137U 21082H   22261.17390469  .00002332  00000-0  20316-3 0  9994,2 49137  69.9993 232.8332 0002972 259.0506 101.0318 14.98336873 56468,6950.172,96.107,574.102,569.971,0.0
49137.0,STARLINK-3055,PAYLOAD,2022-09-18 08:58:50,14.98325313,0.000293,69.9994,232.3282,260.6152,99.4676,6.6708e-05,7.03e-06,0.0,0 STARLINK-3055,1 49137U 21082H   22261.37419514  .00000703  00000-0  66708-4 0  9995,2 49137  69.9994 232.3282 0002930 260.6152  99.4676 14.98325313 56494,6950.206999999999,96.107,574.109,570.036,0.0
49137.0,STARLINK-3055,PAYLOAD,2022-09-19 07:24:43,14.98332449,0.0002976,69.9996,229.9719,259.4857,100.5966,7.6555e-05,8.21e-06,0.0,0 STARLINK-3055,1 49137U 21082H   22262.30883142  .00000821  00000-0  76555-4 0  9993,2 49137  69.9996 229.9719 0002976 259.4857 100.5966 14.98332449 56631,6950.185,96.107,574.119,569.982,0.0
49137.0,STARLINK-3055,PAYLOAD,2022-09-19 15:25:23,14.98335772,0.0002971,69.9996,229.1303,259.471,100.6114,9.072e-05,9.9e-06,0.0,0 STARLINK-3055,1 49137U 21082H   22262.64262854  .00000990  00000-0  90720-4 0  9998,2 49137  69.9996 229.1303 0002971 259.4710 100.6114 14.98335772 56688,6950.175,96.107,574.105,569.975,0.0
49137.0,STARLINK-3055,PAYLOAD,2022-09-20 09:02:51,14.98341754,0.000299,69.9997,227.2789,259.0947,100.9875,0.00012668,1.419e-05,0.0,0 STARLINK-3055,1 49137U 21082H   22263.37698144  .00001419  00000-0  12668-3 0  9995,2 49137  69.9997 227.2789 0002990 259.0947 100.9875 14.98341754 56791,6950.156999999997,96.106,574.1,569.943,0.0
49137.0,STARLINK-3055,PAYLOAD,2022-09-20 15:27:23,14.98332559,0.0002901,70.0006,226.6056,261.0855,98.9976,0.00055182,6.498e-05,0.0,0 STARLINK-3055,1 49137U 21082H   22263.64402767  .00006498  00000-0  55182-3 0  9999,2 49137  70.0006 226.6056 0002901 261.0855  98.9976 14.98332559 56834,6950.185,96.107,574.066,570.034,0.0
